OOV-CUBE (TUBSAT-30)    
1 60240U 24128F   26087.53237420  .00002300  00000+0  18378-3 0  9992
2 60240  61.9947 146.7290 0052931 116.2323 244.4223 15.02370641 93997
COLIBRI-S (RS67S)       
1 61746U 24199M   26087.61018298  .00025634  00000+0  55645-3 0  9994
2 61746  97.3132 320.8734 0008346 202.6331 157.4551 15.44324308124960
HORS 3 (RS81S)          
1 61753U 24199U   26087.57413402  .00039219  00000+0  70732-3 0  9991
2 61753  97.3102 322.0813 0006297 202.1613 157.9367 15.49644525125050
HORS 4 (RS82S)          
1 61754U 24199V   26087.60597975  .00046357  00000+0  74791-3 0  9994
2 61754  97.3073 322.8883 0006081 196.0634 164.0427 15.52753090125113
HORIZON (RS59S)         
1 61757U 24199Y   26087.38528328  .00208062  00000+0  13082-2 0  9996
2 61757  97.3022 327.0977 0005670 163.6485 196.4964 15.76104637125363
ARCTICSAT 1 (RS74S)     
1 61762U 24199AD  26087.58841166  .00137918  00000+0  11346-2 0  9994
2 61762  97.3050 326.6843 0005853 164.1734 195.9712 15.69961083125355
SIT-2086                
1 61764U 24199AF  26087.59587379  .00028289  00000+0  53024-3 0  9990
2 61764  97.3092 322.8080 0006737 190.6159 169.4950 15.48603610121948
HYPERVIEW 1G (RS66S)    
1 61772U 24199AP  26087.62360354  .00083292  00000+0  99683-3 0  9991
2 61772  97.3051 324.2212 0007446 195.1950 164.9085 15.60670897122059
ALTAIR (RS65S)          
1 61779U 24199AW  26087.60392002  .00012063  00000+0  35185-3 0  9996
2 61779  97.3158 317.5222 0011825 230.6853 129.3343 15.35429254124744
ASRTU-1 (AO-123)        
1 61781U 24199AY  26087.59527137  .00009905  00000+0  29869-3 0  9999
2 61781  97.3130 317.0067 0012700 233.5220 126.4854 15.34423663121561
TUSUR GO (RS78S)        
1 61782U 24199AZ  26087.45028013  .00237582  00000+0  13983-2 0  9997
2 61782  97.2973 326.1912 0005833 176.1622 183.9690 15.77531145122179
SAMSAT-IONOSPHERE (RS7*)
1 61784U 24199BB  26087.58268654  .00046467  00000+0  79577-3 0  9992
2 61784  97.3089 321.9175 0009070 208.2112 151.8650 15.51053132125048
RTU MIREA 1 (RS51S)     
1 61785U 24199BC  26087.62026137  .00053116  00000+0  84132-3 0  9998
2 61785  97.3086 322.4592 0009127 205.1411 154.9399 15.53208483121937
TEVEL2-4                
1 63213U 25052D   26087.44837012  .00022525  00000+0  73710-3 0  9997
2 63213  97.3996 343.8393 0004284  59.9840 300.1826 15.31690724 57747
TEVEL2-5                
1 63214U 25052E   26087.46087166  .00022485  00000+0  73880-3 0  9990
2 63214  97.3996 343.8203 0004209  59.5036 300.6621 15.31560236 57740
TEVEL2-6                
1 63215U 25052F   26087.20984563  .00021530  00000+0  70877-3 0  9993
2 63215  97.3996 343.5553 0004365  59.7929 300.3744 15.31507703 57701
