[{"OBJECT_NAME":"OOV-CUBE (TUBSAT-30)","OBJECT_ID":"2024-128F","EPOCH":"2026-03-28T12:46:37.130880","MEAN_MOTION":15.02370641,"ECCENTRICITY":0.00529314,"INCLINATION":61.9947,"RA_OF_ASC_NODE":146.729,"ARG_OF_PERICENTER":116.2323,"MEAN_ANOMALY":244.4223,"EPHEMERIS_TYPE":0,"CLASSIFICATION_TYPE":"U","NORAD_CAT_ID":60240,"ELEMENT_SET_NO":999,"REV_AT_EPOCH":9399,"BSTAR":0.00018377531,"MEAN_MOTION_DOT":2.3e-5,"MEAN_MOTION_DDOT":0},{"OBJECT_NAME":"COLIBRI-S (RS67S)","OBJECT_ID":"2024-199M","EPOCH":"2026-03-28T14:38:39.809472","MEAN_MOTION":15.44324308,"ECCENTRICITY":0.00083466,"INCLINATION":97.3132,"RA_OF_ASC_NODE":320.8734,"ARG_OF_PERICENTER":202.6331,"MEAN_ANOMALY":157.4551,"EPHEMERIS_TYPE":0,"CLASSIFICATION_TYPE":"U","NORAD_CAT_ID":61746,"ELEMENT_SET_NO":999,"REV_AT_EPOCH":12496,"BSTAR":0.00055645388,"MEAN_MOTION_DOT":0.00025634,"MEAN_MOTION_DDOT":0},{"OBJECT_NAME":"HORS 3 (RS81S)","OBJECT_ID":"2024-199U","EPOCH":"2026-03-28T13:46:45.179328","MEAN_MOTION":15.49644525,"ECCENTRICITY":0.00062978,"INCLINATION":97.3102,"RA_OF_ASC_NODE":322.0813,"ARG_OF_PERICENTER":202.1613,"MEAN_ANOMALY":157.9367,"EPHEMERIS_TYPE":0,"CLASSIFICATION_TYPE":"U","NORAD_CAT_ID":61753,"ELEMENT_SET_NO":999,"REV_AT_EPOCH":12505,"BSTAR":0.00070732225,"MEAN_MOTION_DOT":0.00039219,"MEAN_MOTION_DDOT":0},{"OBJECT_NAME":"HORS 4 (RS82S)","OBJECT_ID":"2024-199V","EPOCH":"2026-03-28T14:32:36.650400","MEAN_MOTION":15.5275309,"ECCENTRICITY":0.00060813,"INCLINATION":97.3073,"RA_OF_ASC_NODE":322.8883,"ARG_OF_PERICENTER":196.0634,"MEAN_ANOMALY":164.0427,"EPHEMERIS_TYPE":0,"CLASSIFICATION_TYPE":"U","NORAD_CAT_ID":61754,"ELEMENT_SET_NO":999,"REV_AT_EPOCH":12511,"BSTAR":0.00074790582,"MEAN_MOTION_DOT":0.00046357,"MEAN_MOTION_DDOT":0},{"OBJECT_NAME":"HORIZON (RS59S)","OBJECT_ID":"2024-199Y","EPOCH":"2026-03-28T09:14:48.475392","MEAN_MOTION":15.76104637,"ECCENTRICITY":0.00056706,"INCLINATION":97.3022,"RA_OF_ASC_NODE":327.0977,"ARG_OF_PERICENTER":163.6485,"MEAN_ANOMALY":196.4964,"EPHEMERIS_TYPE":0,"CLASSIFICATION_TYPE":"U","NORAD_CAT_ID":61757,"ELEMENT_SET_NO":999,"REV_AT_EPOCH":12536,"BSTAR":0.0013082388,"MEAN_MOTION_DOT":0.00208062,"MEAN_MOTION_DDOT":0},{"OBJECT_NAME":"ARCTICSAT 1 (RS74S)","OBJECT_ID":"2024-199AD","EPOCH":"2026-03-28T14:07:18.767424","MEAN_MOTION":15.69961083,"ECCENTRICITY":0.00058534,"INCLINATION":97.305,"RA_OF_ASC_NODE":326.6843,"ARG_OF_PERICENTER":164.1734,"MEAN_ANOMALY":195.9712,"EPHEMERIS_TYPE":0,"CLASSIFICATION_TYPE":"U","NORAD_CAT_ID":61762,"ELEMENT_SET_NO":999,"REV_AT_EPOCH":12535,"BSTAR":0.001134626,"MEAN_MOTION_DOT":0.00137918,"MEAN_MOTION_DDOT":0},{"OBJECT_NAME":"SIT-2086","OBJECT_ID":"2024-199AF","EPOCH":"2026-03-28T14:18:03.495456","MEAN_MOTION":15.4860361,"ECCENTRICITY":0.00067376,"INCLINATION":97.3092,"RA_OF_ASC_NODE":322.808,"ARG_OF_PERICENTER":190.6159,"MEAN_ANOMALY":169.495,"EPHEMERIS_TYPE":0,"CLASSIFICATION_TYPE":"U","NORAD_CAT_ID":61764,"ELEMENT_SET_NO":999,"REV_AT_EPOCH":12194,"BSTAR":0.00053023859,"MEAN_MOTION_DOT":0.00028289,"MEAN_MOTION_DDOT":0},{"OBJECT_NAME":"HYPERVIEW 1G (RS66S)","OBJECT_ID":"2024-199AP","EPOCH":"2026-03-28T14:57:59.345856","MEAN_MOTION":15.60670897,"ECCENTRICITY":0.00074469,"INCLINATION":97.3051,"RA_OF_ASC_NODE":324.2212,"ARG_OF_PERICENTER":195.195,"MEAN_ANOMALY":164.9085,"EPHEMERIS_TYPE":0,"CLASSIFICATION_TYPE":"U","NORAD_CAT_ID":61772,"ELEMENT_SET_NO":999,"REV_AT_EPOCH":12205,"BSTAR":0.00099683375,"MEAN_MOTION_DOT":0.00083292,"MEAN_MOTION_DDOT":0},{"OBJECT_NAME":"ALTAIR (RS65S)","OBJECT_ID":"2024-199AW","EPOCH":"2026-03-28T14:29:38.689728","MEAN_MOTION":15.35429254,"ECCENTRICITY":0.00118259,"INCLINATION":97.3158,"RA_OF_ASC_NODE":317.5222,"ARG_OF_PERICENTER":230.6853,"MEAN_ANOMALY":129.3343,"EPHEMERIS_TYPE":0,"CLASSIFICATION_TYPE":"U","NORAD_CAT_ID":61779,"ELEMENT_SET_NO":999,"REV_AT_EPOCH":12474,"BSTAR":0.0003518549,"MEAN_MOTION_DOT":0.00012063,"MEAN_MOTION_DDOT":0},{"OBJECT_NAME":"ASRTU-1 (AO-123)","OBJECT_ID":"2024-199AY","EPOCH":"2026-03-28T14:17:11.446368","MEAN_MOTION":15.34423663,"ECCENTRICITY":0.00127,"INCLINATION":97.313,"RA_OF_ASC_NODE":317.0067,"ARG_OF_PERICENTER":233.522,"MEAN_ANOMALY":126.4854,"EPHEMERIS_TYPE":0,"CLASSIFICATION_TYPE":"U","NORAD_CAT_ID":61781,"ELEMENT_SET_NO":999,"REV_AT_EPOCH":12156,"BSTAR":0.00029868508,"MEAN_MOTION_DOT":9.905e-5,"MEAN_MOTION_DDOT":0},{"OBJECT_NAME":"TUSUR GO (RS78S)","OBJECT_ID":"2024-199AZ","EPOCH":"2026-03-28T10:48:24.203232","MEAN_MOTION":15.77531145,"ECCENTRICITY":0.00058339,"INCLINATION":97.2973,"RA_OF_ASC_NODE":326.1912,"ARG_OF_PERICENTER":176.1622,"MEAN_ANOMALY":183.969,"EPHEMERIS_TYPE":0,"CLASSIFICATION_TYPE":"U","NORAD_CAT_ID":61782,"ELEMENT_SET_NO":999,"REV_AT_EPOCH":12217,"BSTAR":0.0013982788,"MEAN_MOTION_DOT":0.00237582,"MEAN_MOTION_DDOT":0},{"OBJECT_NAME":"SAMSAT-IONOSPHERE (RS75S)","OBJECT_ID":"2024-199BB","EPOCH":"2026-03-28T13:59:04.117056","MEAN_MOTION":15.51053132,"ECCENTRICITY":0.00090701,"INCLINATION":97.3089,"RA_OF_ASC_NODE":321.9175,"ARG_OF_PERICENTER":208.2112,"MEAN_ANOMALY":151.865,"EPHEMERIS_TYPE":0,"CLASSIFICATION_TYPE":"U","NORAD_CAT_ID":61784,"ELEMENT_SET_NO":999,"REV_AT_EPOCH":12504,"BSTAR":0.00079577341,"MEAN_MOTION_DOT":0.00046467,"MEAN_MOTION_DDOT":0},{"OBJECT_NAME":"RTU MIREA 1 (RS51S)","OBJECT_ID":"2024-199BC","EPOCH":"2026-03-28T14:53:10.582368","MEAN_MOTION":15.53208483,"ECCENTRICITY":0.0009127,"INCLINATION":97.3086,"RA_OF_ASC_NODE":322.4592,"ARG_OF_PERICENTER":205.1411,"MEAN_ANOMALY":154.9399,"EPHEMERIS_TYPE":0,"CLASSIFICATION_TYPE":"U","NORAD_CAT_ID":61785,"ELEMENT_SET_NO":999,"REV_AT_EPOCH":12193,"BSTAR":0.00084131633,"MEAN_MOTION_DOT":0.00053116,"MEAN_MOTION_DDOT":0},{"OBJECT_NAME":"TEVEL2-4","OBJECT_ID":"2025-052D","EPOCH":"2026-03-28T10:45:39.178368","MEAN_MOTION":15.31690724,"ECCENTRICITY":0.00042842,"INCLINATION":97.3996,"RA_OF_ASC_NODE":343.8393,"ARG_OF_PERICENTER":59.984,"MEAN_ANOMALY":300.1826,"EPHEMERIS_TYPE":0,"CLASSIFICATION_TYPE":"U","NORAD_CAT_ID":63213,"ELEMENT_SET_NO":999,"REV_AT_EPOCH":5774,"BSTAR":0.00073709764,"MEAN_MOTION_DOT":0.00022525,"MEAN_MOTION_DDOT":0},{"OBJECT_NAME":"TEVEL2-5","OBJECT_ID":"2025-052E","EPOCH":"2026-03-28T11:03:39.311424","MEAN_MOTION":15.31560236,"ECCENTRICITY":0.00042094,"INCLINATION":97.3996,"RA_OF_ASC_NODE":343.8203,"ARG_OF_PERICENTER":59.5036,"MEAN_ANOMALY":300.6621,"EPHEMERIS_TYPE":0,"CLASSIFICATION_TYPE":"U","NORAD_CAT_ID":63214,"ELEMENT_SET_NO":999,"REV_AT_EPOCH":5774,"BSTAR":0.00073879894,"MEAN_MOTION_DOT":0.00022485,"MEAN_MOTION_DDOT":0},{"OBJECT_NAME":"TEVEL2-6","OBJECT_ID":"2025-052F","EPOCH":"2026-03-28T05:02:10.662432","MEAN_MOTION":15.31507703,"ECCENTRICITY":0.0004365,"INCLINATION":97.3996,"RA_OF_ASC_NODE":343.5553,"ARG_OF_PERICENTER":59.7929,"MEAN_ANOMALY":300.3744,"EPHEMERIS_TYPE":0,"CLASSIFICATION_TYPE":"U","NORAD_CAT_ID":63215,"ELEMENT_SET_NO":999,"REV_AT_EPOCH":5770,"BSTAR":0.00070877,"MEAN_MOTION_DOT":0.0002153,"MEAN_MOTION_DDOT":0}]
